{
  "type": "FeatureCollection",
  "features": [
    {
      "type": "Feature",
      "properties": {
        "norad_id": 29780,
        "name": "FENGYUN 1C DEB",
        "group": "fengyun-1c-debris",
        "lat": -78.91537945769217,
        "lon": -39.81849227474164,
        "alt_km": 850.2616674267365,
        "timestamp": "2025-12-08T21:31:04.938976+00:00",
        "meta_object_name": "FENGYUN 1C DEB",
        "meta_object_id": "1999-025BW",
        "meta_epoch": "2025-12-08T06:42:22.490208",
        "meta_mean_motion": 14.20992156,
        "meta_eccentricity": 0.00401641,
        "meta_inclination": 99.2777,
        "meta_ra_of_asc_node": 262.9854,
        "meta_arg_of_pericenter": 141.1758,
        "meta_mean_anomaly": 219.2315,
        "meta_ephemeris_type": 0,
        "meta_classification_type": "U",
        "meta_norad_cat_id": 29780,
        "meta_element_set_no": 999,
        "meta_rev_at_epoch": 97015,
        "meta_bstar": 0.0025060827,
        "meta_mean_motion_dot": 5.432e-05,
        "meta_mean_motion_ddot": 0,
        "tle_line1": "1 29780U 99025BW  25342.27942697  .00005432  00000+0  25061-2 0  9992",
        "tle_line2": "2 29780  99.2777 262.9854 0040164 141.1758 219.2315 14.20992156970151"
      },
      "geometry": {
        "type": "Point",
        "coordinates": [
          -39.81849227474164,
          -78.91537945769217
        ]
      }
    },
    {
      "type": "Feature",
      "properties": {
        "norad_id": 29781,
        "name": "FENGYUN 1C DEB",
        "group": "fengyun-1c-debris",
        "lat": 79.457104682392,
        "lon": -79.26806723206907,
        "alt_km": 876.7624489329255,
        "timestamp": "2025-12-08T21:31:04.938987+00:00",
        "meta_object_name": "FENGYUN 1C DEB",
        "meta_object_id": "1999-025BX",
        "meta_epoch": "2025-12-08T11:34:57.547200",
        "meta_mean_motion": 14.05214661,
        "meta_eccentricity": 0.00716527,
        "meta_inclination": 98.8093,
        "meta_ra_of_asc_node": 336.7598,
        "meta_arg_of_pericenter": 185.0302,
        "meta_mean_anomaly": 326.9404,
        "meta_ephemeris_type": 0,
        "meta_classification_type": "U",
        "meta_norad_cat_id": 29781,
        "meta_element_set_no": 999,
        "meta_rev_at_epoch": 96583,
        "meta_bstar": 0.00092757535,
        "meta_mean_motion_dot": 1.491e-05,
        "meta_mean_motion_ddot": 0,
        "tle_line1": "1 29781U 99025BX  25342.48261050  .00001491  00000+0  92758-3 0  9992",
        "tle_line2": "2 29781  98.8093 336.7598 0071652 185.0302 326.9404 14.05214661965836"
      },
      "geometry": {
        "type": "Point",
        "coordinates": [
          -79.26806723206907,
          79.457104682392
        ]
      }
    },
    {
      "type": "Feature",
      "properties": {
        "norad_id": 29782,
        "name": "FENGYUN 1C DEB",
        "group": "fengyun-1c-debris",
        "lat": 32.86008320939474,
        "lon": 30.495806700033697,
        "alt_km": 891.716628827242,
        "timestamp": "2025-12-08T21:31:04.938998+00:00",
        "meta_object_name": "FENGYUN 1C DEB",
        "meta_object_id": "1999-025BY",
        "meta_epoch": "2025-12-08T15:07:59.240064",
        "meta_mean_motion": 14.11633193,
        "meta_eccentricity": 0.00553008,
        "meta_inclination": 99.0997,
        "meta_ra_of_asc_node": 36.1683,
        "meta_arg_of_pericenter": 214.2621,
        "meta_mean_anomaly": 267.9346,
        "meta_ephemeris_type": 0,
        "meta_classification_type": "U",
        "meta_norad_cat_id": 29782,
        "meta_element_set_no": 999,
        "meta_rev_at_epoch": 96613,
        "meta_bstar": 0.0021885627,
        "meta_mean_motion_dot": 3.992e-05,
        "meta_mean_motion_ddot": 0,
        "tle_line1": "1 29782U 99025BY  25342.63054676  .00003992  00000+0  21886-2 0  9995",
        "tle_line2": "2 29782  99.0997  36.1683 0055300 214.2621 267.9346 14.11633193966135"
      },
      "geometry": {
        "type": "Point",
        "coordinates": [
          30.495806700033697,
          32.86008320939474
        ]
      }
    },
    {
      "type": "Feature",
      "properties": {
        "norad_id": 29784,
        "name": "FENGYUN 1C DEB",
        "group": "fengyun-1c-debris",
        "lat": -73.10497553744253,
        "lon": -67.17957757073938,
        "alt_km": 758.1072613819442,
        "timestamp": "2025-12-08T21:31:04.939008+00:00",
        "meta_object_name": "FENGYUN 1C DEB",
        "meta_object_id": "1999-025CA",
        "meta_epoch": "2025-12-08T07:19:03.353952",
        "meta_mean_motion": 14.30564016,
        "meta_eccentricity": 0.00596445,
        "meta_inclination": 98.9451,
        "meta_ra_of_asc_node": 260.9759,
        "meta_arg_of_pericenter": 310.4802,
        "meta_mean_anomaly": 168.7436,
        "meta_ephemeris_type": 0,
        "meta_classification_type": "U",
        "meta_norad_cat_id": 29784,
        "meta_element_set_no": 999,
        "meta_rev_at_epoch": 98296,
        "meta_bstar": 0.0010354719,
        "meta_mean_motion_dot": 2.707e-05,
        "meta_mean_motion_ddot": 0,
        "tle_line1": "1 29784U 99025CA  25342.30489993  .00002707  00000+0  10355-2 0  9997",
        "tle_line2": "2 29784  98.9451 260.9759 0059644 310.4802 168.7436 14.30564016982961"
      },
      "geometry": {
        "type": "Point",
        "coordinates": [
          -67.17957757073938,
          -73.10497553744253
        ]
      }
    },
    {
      "type": "Feature",
      "properties": {
        "norad_id": 29786,
        "name": "FENGYUN 1C DEB",
        "group": "fengyun-1c-debris",
        "lat": 18.98223591969484,
        "lon": -176.737216397063,
        "alt_km": 912.5168113211548,
        "timestamp": "2025-12-08T21:31:04.939018+00:00",
        "meta_object_name": "FENGYUN 1C DEB",
        "meta_object_id": "1999-025CC",
        "meta_epoch": "2025-12-08T14:31:48.855648",
        "meta_mean_motion": 14.09080794,
        "meta_eccentricity": 0.00771467,
        "meta_inclination": 98.7359,
        "meta_ra_of_asc_node": 359.9487,
        "meta_arg_of_pericenter": 314.8705,
        "meta_mean_anomaly": 170.074,
        "meta_ephemeris_type": 0,
        "meta_classification_type": "U",
        "meta_norad_cat_id": 29786,
        "meta_element_set_no": 999,
        "meta_rev_at_epoch": 97102,
        "meta_bstar": 0.00029002086,
        "meta_mean_motion_dot": 4.74e-06,
        "meta_mean_motion_ddot": 0,
        "tle_line1": "1 29786U 99025CC  25342.60542657  .00000474  00000+0  29002-3 0  9998",
        "tle_line2": "2 29786  98.7359 359.9487 0077146 314.8705 170.0740 14.09080794971023"
      },
      "geometry": {
        "type": "Point",
        "coordinates": [
          -176.737216397063,
          18.98223591969484
        ]
      }
    },
    {
      "type": "Feature",
      "properties": {
        "norad_id": 29788,
        "name": "FENGYUN 1C DEB",
        "group": "fengyun-1c-debris",
        "lat": -41.94232481707202,
        "lon": -133.47551188947787,
        "alt_km": 783.4263138512997,
        "timestamp": "2025-12-08T21:31:04.939029+00:00",
        "meta_object_name": "FENGYUN 1C DEB",
        "meta_object_id": "1999-025CE",
        "meta_epoch": "2025-12-08T15:59:57.138720",
        "meta_mean_motion": 14.25923942,
        "meta_eccentricity": 0.00429734,
        "meta_inclination": 98.7837,
        "meta_ra_of_asc_node": 54.2803,
        "meta_arg_of_pericenter": 200.452,
        "meta_mean_anomaly": 282.0734,
        "meta_ephemeris_type": 0,
        "meta_classification_type": "U",
        "meta_norad_cat_id": 29788,
        "meta_element_set_no": 999,
        "meta_rev_at_epoch": 97297,
        "meta_bstar": 0.0025315145,
        "meta_mean_motion_dot": 6.05e-05,
        "meta_mean_motion_ddot": 0,
        "tle_line1": "1 29788U 99025CE  25342.66663355  .00006050  00000+0  25315-2 0  9993",
        "tle_line2": "2 29788  98.7837  54.2803 0042973 200.4520 282.0734 14.25923942972979"
      },
      "geometry": {
        "type": "Point",
        "coordinates": [
          -133.47551188947787,
          -41.94232481707202
        ]
      }
    },
    {
      "type": "Feature",
      "properties": {
        "norad_id": 29789,
        "name": "FENGYUN 1C DEB",
        "group": "fengyun-1c-debris",
        "lat": -77.56894393190414,
        "lon": -145.06267389094438,
        "alt_km": 845.5987231398258,
        "timestamp": "2025-12-08T21:31:04.939040+00:00",
        "meta_object_name": "FENGYUN 1C DEB",
        "meta_object_id": "1999-025CF",
        "meta_epoch": "2025-12-08T11:23:55.481280",
        "meta_mean_motion": 13.54225994,
        "meta_eccentricity": 0.02983503,
        "meta_inclination": 99.4516,
        "meta_ra_of_asc_node": 165.4499,
        "meta_arg_of_pericenter": 289.5595,
        "meta_mean_anomaly": 94.6573,
        "meta_ephemeris_type": 0,
        "meta_classification_type": "U",
        "meta_norad_cat_id": 29789,
        "meta_element_set_no": 999,
        "meta_rev_at_epoch": 92930,
        "meta_bstar": 0.0022707485,
        "meta_mean_motion_dot": 2.006e-05,
        "meta_mean_motion_ddot": 0,
        "tle_line1": "1 29789U 99025CF  25342.47494770  .00002006  00000+0  22707-2 0  9995",
        "tle_line2": "2 29789  99.4516 165.4499 0298350 289.5595  94.6573 13.54225994929300"
      },
      "geometry": {
        "type": "Point",
        "coordinates": [
          -145.06267389094438,
          -77.56894393190414
        ]
      }
    }
  ]
}